[{"OBJECT_NAME":"JY1SAT (JO-97)","OBJECT_ID":"2018-099AX","EPOCH":"2026-03-09T16:28:19.890048","MEAN_MOTION":15.30302629,"ECCENTRICITY":0.00047232,"INCLINATION":97.4249,"RA_OF_ASC_NODE":131.3625,"ARG_OF_PERICENTER":256.6795,"MEAN_ANOMALY":103.3919,"EPHEMERIS_TYPE":0,"CLASSIFICATION_TYPE":"U","NORAD_CAT_ID":43803,"ELEMENT_SET_NO":999,"REV_AT_EPOCH":39839,"BSTAR":0.00060804308,"MEAN_MOTION_DOT":0.00017774,"MEAN_MOTION_DDOT":0},{"OBJECT_NAME":"STARLINK-2436","OBJECT_ID":"2021-027K","EPOCH":"2026-03-09T13:24:34.974432","MEAN_MOTION":15.3021464,"ECCENTRICITY":0.0001556,"INCLINATION":53.1602,"RA_OF_ASC_NODE":155.5561,"ARG_OF_PERICENTER":86.962,"MEAN_ANOMALY":273.1558,"EPHEMERIS_TYPE":0,"CLASSIFICATION_TYPE":"U","NORAD_CAT_ID":48101,"ELEMENT_SET_NO":999,"REV_AT_EPOCH":27264,"BSTAR":0.0003904,"MEAN_MOTION_DOT":0.00011226,"MEAN_MOTION_DDOT":0}]
