JY1SAT (JO-97)          
1 43803U 18099AX  26068.68634132  .00017774  00000+0  60804-3 0  9996
2 43803  97.4249 131.3625 0004723 256.6795 103.3919 15.30302628398390
STARLINK-2436           
1 48101U 21027K   26068.55873813  .00011226  00000+0  39040-3 0  9998
2 48101  53.1602 155.5561 0001556  86.9620 273.1558 15.30214640272647
